[{"OBJECT_NAME":"STARLINK-3657","OBJECT_ID":"2022-025AL","EPOCH":"2026-03-09T06:46:29.624448","MEAN_MOTION":15.08838086,"ECCENTRICITY":0.00013489,"INCLINATION":53.219,"RA_OF_ASC_NODE":20.9482,"ARG_OF_PERICENTER":97.1378,"MEAN_ANOMALY":262.9768,"EPHEMERIS_TYPE":0,"CLASSIFICATION_TYPE":"U","NORAD_CAT_ID":51990,"ELEMENT_SET_NO":999,"REV_AT_EPOCH":22127,"BSTAR":1.6046334e-5,"MEAN_MOTION_DOT":-3.3e-7,"MEAN_MOTION_DDOT":0},{"OBJECT_NAME":"POSAT-2","OBJECT_ID":"2025-009DR","EPOCH":"2026-03-09T23:15:20.314368","MEAN_MOTION":15.10404492,"ECCENTRICITY":0.00077103,"INCLINATION":97.4906,"RA_OF_ASC_NODE":146.0095,"ARG_OF_PERICENTER":126.4226,"MEAN_ANOMALY":233.7715,"EPHEMERIS_TYPE":0,"CLASSIFICATION_TYPE":"U","NORAD_CAT_ID":63488,"ELEMENT_SET_NO":999,"REV_AT_EPOCH":5165,"BSTAR":0.0010942248,"MEAN_MOTION_DOT":0.00017957,"MEAN_MOTION_DDOT":0}]
